{"type": "FeatureCollection", "features": [ {"type": "Feature", "properties": {"norad_id": 33867, "name": "IRIDIUM 33 DEB", "group": "iridium-33-debris", "lat": -86.30832559028754, "lon": -87.53003717800674, "alt_km": 406.49441080182805, "timestamp": "2025-12-07T05:38:10.288576+00:00", "meta": {"OBJECT_NAME": "IRIDIUM 33 DEB", "OBJECT_ID": "1997-051AL", "EPOCH": "2025-12-06T13:04:06.627360", "MEAN_MOTION": 15.58002769, "ECCENTRICITY": 0.00124504, "INCLINATION": 86.3617, "RA_OF_ASC_NODE": 353.2987, "ARG_OF_PERICENTER": 93.4662, "MEAN_ANOMALY": 266.8026, "EPHEMERIS_TYPE": 0, "CLASSIFICATION_TYPE": "U", "NORAD_CAT_ID": 33867, "ELEMENT_SET_NO": 999, "REV_AT_EPOCH": 89414, "BSTAR": 0.0092198689, "MEAN_MOTION_DOT": 0.00758101, "MEAN_MOTION_DDOT": 0}, "tle": {"line1": "1 33867U 97051AL  25340.54452115  .00758101  00000+0  92199-2 0  9993", "line2": "2 33867  86.3617 353.2987 0012450  93.4662 266.8026 15.58002769894148"}}, "geometry": {"type": "Point", "coordinates": [-87.53003717800674, -86.30832559028754]}}, {"type": "Feature", "properties": {"norad_id": 33870, "name": "IRIDIUM 33 DEB", "group": "iridium-33-debris", "lat": 48.356415040801664, "lon": -123.46719103906582, "alt_km": 728.8128064531174, "timestamp": "2025-12-07T05:38:10.288587+00:00", "meta": {"OBJECT_NAME": "IRIDIUM 33 DEB", "OBJECT_ID": "1997-051AP", "EPOCH": "2025-12-06T12:28:59.486880", "MEAN_MOTION": 14.45799648, "ECCENTRICITY": 0.00207971, "INCLINATION": 86.3754, "RA_OF_ASC_NODE": 60.9268, "ARG_OF_PERICENTER": 198.6792, "MEAN_ANOMALY": 175.3723, "EPHEMERIS_TYPE": 0, "CLASSIFICATION_TYPE": "U", "NORAD_CAT_ID": 33870, "ELEMENT_SET_NO": 999, "REV_AT_EPOCH": 88047, "BSTAR": 0.0015682537, "MEAN_MOTION_DOT": 5.596e-05, "MEAN_MOTION_DDOT": 0}, "tle": {"line1": "1 33870U 97051AP  25340.52013295  .00005596  00000+0  15683-2 0  9993", "line2": "2 33870  86.3754  60.9268 0020797 198.6792 175.3723 14.45799648880476"}}, "geometry": {"type": "Point", "coordinates": [-123.46719103906582, 48.356415040801664]}}, {"type": "Feature", "properties": {"norad_id": 33881, "name": "IRIDIUM 33 DEB", "group": "iridium-33-debris", "lat": 31.451221782822866, "lon": -73.08075561443808, "alt_km": 671.7579778863683, "timestamp": "2025-12-07T05:38:10.288597+00:00", "meta": {"OBJECT_NAME": "IRIDIUM 33 DEB", "OBJECT_ID": "1997-051BA", "EPOCH": "2025-12-06T07:38:56.020416", "MEAN_MOTION": 14.56393916, "ECCENTRICITY": 0.00612815, "INCLINATION": 86.3871, "RA_OF_ASC_NODE": 109.5319, "ARG_OF_PERICENTER": 195.5267, "MEAN_ANOMALY": 193.0658, "EPHEMERIS_TYPE": 0, "CLASSIFICATION_TYPE": "U", "NORAD_CAT_ID": 33881, "ELEMENT_SET_NO": 999, "REV_AT_EPOCH": 87407, "BSTAR": 0.003562561, "MEAN_MOTION_DOT": 0.00016256, "MEAN_MOTION_DDOT": 0}, "tle": {"line1": "1 33881U 97051BA  25340.31870394  .00016256  00000+0  35626-2 0  9997", "line2": "2 33881  86.3871 109.5319 0061281 195.5267 193.0658 14.56393916874074"}}, "geometry": {"type": "Point", "coordinates": [-73.08075561443808, 31.451221782822866]}}, {"type": "Feature", "properties": {"norad_id": 33884, "name": "IRIDIUM 33 DEB", "group": "iridium-33-debris", "lat": 42.82623903961065, "lon": 15.677271908501977, "alt_km": 630.7235723194681, "timestamp": "2025-12-07T05:38:10.288608+00:00", "meta": {"OBJECT_NAME": "IRIDIUM 33 DEB", "OBJECT_ID": "1997-051BD", "EPOCH": "2025-12-06T08:22:17.400864", "MEAN_MOTION": 14.77245967, "ECCENTRICITY": 0.00103461, "INCLINATION": 86.3691, "RA_OF_ASC_NODE": 12.703, "ARG_OF_PERICENTER": 347.5842, "MEAN_ANOMALY": 26.4048, "EPHEMERIS_TYPE": 0, "CLASSIFICATION_TYPE": "U", "NORAD_CAT_ID": 33884, "ELEMENT_SET_NO": 999, "REV_AT_EPOCH": 88753, "BSTAR": 0.0022939215, "MEAN_MOTION_DOT": 0.00016315, "MEAN_MOTION_DDOT": 0}, "tle": {"line1": "1 33884U 97051BD  25340.34881251  .00016315  00000+0  22939-2 0  9996", "line2": "2 33884  86.3691  12.7030 0010346 347.5842  26.4048 14.77245967887538"}}, "geometry": {"type": "Point", "coordinates": [15.677271908501977, 42.82623903961065]}}, {"type": "Feature", "properties": {"norad_id": 33886, "name": "IRIDIUM 33 DEB", "group": "iridium-33-debris", "lat": 65.60185539578968, "lon": 77.56138418928789, "alt_km": 773.5331576878452, "timestamp": "2025-12-07T05:38:10.288619+00:00", "meta": {"OBJECT_NAME": "IRIDIUM 33 DEB", "OBJECT_ID": "1997-051BF", "EPOCH": "2025-12-06T12:39:24.568416", "MEAN_MOTION": 14.3604061, "ECCENTRICITY": 0.00120749, "INCLINATION": 86.3832, "RA_OF_ASC_NODE": 69.8433, "ARG_OF_PERICENTER": 265.6079, "MEAN_ANOMALY": 105.1045, "EPHEMERIS_TYPE": 0, "CLASSIFICATION_TYPE": "U", "NORAD_CAT_ID": 33886, "ELEMENT_SET_NO": 999, "REV_AT_EPOCH": 87963, "BSTAR": 0.00040568694, "MEAN_MOTION_DOT": 1.199e-05, "MEAN_MOTION_DDOT": 0}, "tle": {"line1": "1 33886U 97051BF  25340.52736769  .00001199  00000+0  40569-3 0  9995", "line2": "2 33886  86.3832  69.8433 0012074 265.6079 105.1045 14.36040610879636"}}, "geometry": {"type": "Point", "coordinates": [77.56138418928789, 65.60185539578968]}}, {"type": "Feature", "properties": {"norad_id": 33887, "name": "IRIDIUM 33 DEB", "group": "iridium-33-debris", "lat": -21.08323603280525, "lon": 4.337102216017381, "alt_km": 772.8255191354465, "timestamp": "2025-12-07T05:38:10.288629+00:00", "meta": {"OBJECT_NAME": "IRIDIUM 33 DEB", "OBJECT_ID": "1997-051BG", "EPOCH": "2025-12-06T13:38:10.904064", "MEAN_MOTION": 14.37212873, "ECCENTRICITY": 0.00040896, "INCLINATION": 86.3048, "RA_OF_ASC_NODE": 6.0519, "ARG_OF_PERICENTER": 255.8659, "MEAN_ANOMALY": 235.9824, "EPHEMERIS_TYPE": 0, "CLASSIFICATION_TYPE": "U", "NORAD_CAT_ID": 33887, "ELEMENT_SET_NO": 999, "REV_AT_EPOCH": 88076, "BSTAR": 0.00026828593, "MEAN_MOTION_DOT": 8.18e-06, "MEAN_MOTION_DDOT": 0}, "tle": {"line1": "1 33887U 97051BG  25340.56818176  .00000818  00000+0  26829-3 0  9993", "line2": "2 33887  86.3048   6.0519 0004089 255.8659 235.9824 14.37212873880762"}}, "geometry": {"type": "Point", "coordinates": [4.337102216017381, -21.08323603280525]}}, {"type": "Feature", "properties": {"norad_id": 33953, "name": "IRIDIUM 33 DEB", "group": "iridium-33-debris", "lat": -17.287985887194512, "lon": -122.70381870941388, "alt_km": 710.8687299102203, "timestamp": "2025-12-07T05:38:10.288640+00:00", "meta": {"OBJECT_NAME": "IRIDIUM 33 DEB", "OBJECT_ID": "1997-051BN", "EPOCH": "2025-12-05T23:50:27.951648", "MEAN_MOTION": 14.55218556, "ECCENTRICITY": 0.00185309, "INCLINATION": 86.3851, "RA_OF_ASC_NODE": 56.7073, "ARG_OF_PERICENTER": 123.3499, "MEAN_ANOMALY": 54.0321, "EPHEMERIS_TYPE": 0, "CLASSIFICATION_TYPE": "U", "NORAD_CAT_ID": 33953, "ELEMENT_SET_NO": 999, "REV_AT_EPOCH": 88205, "BSTAR": 0.0020564879, "MEAN_MOTION_DOT": 8.94e-05, "MEAN_MOTION_DDOT": 0}, "tle": {"line1": "1 33953U 97051BN  25339.99337907  .00008940  00000+0  20565-2 0  9994", "line2": "2 33953  86.3851  56.7073 0018530 123.3499  54.0321 14.55218556882052"}}, "geometry": {"type": "Point", "coordinates": [-122.70381870941388, -17.287985887194512]}}, {"type": "Feature", "properties": {"norad_id": 33960, "name": "IRIDIUM 33 DEB", "group": "iridium-33-debris", "lat": 45.797718873869, "lon": 108.24504099675211, "alt_km": 608.3707711806928, "timestamp": "2025-12-07T05:38:10.288650+00:00", "meta": {"OBJECT_NAME": "IRIDIUM 33 DEB", "OBJECT_ID": "1997-051BV", "EPOCH": "2025-12-06T15:18:08.666784", "MEAN_MOTION": 14.84702604, "ECCENTRICITY": 0.00072103, "INCLINATION": 86.2537, "RA_OF_ASC_NODE": 292.3895, "ARG_OF_PERICENTER": 70.8498, "MEAN_ANOMALY": 112.9109, "EPHEMERIS_TYPE": 0, "CLASSIFICATION_TYPE": "U", "NORAD_CAT_ID": 33960, "ELEMENT_SET_NO": 999, "REV_AT_EPOCH": 88776, "BSTAR": 0.0054964457, "MEAN_MOTION_DOT": 0.00046835, "MEAN_MOTION_DDOT": 0}, "tle": {"line1": "1 33960U 97051BV  25340.63760031  .00046835  00000+0  54964-2 0  9998", "line2": "2 33960  86.2537 292.3895 0007210  70.8498 112.9109 14.84702604887763"}}, "geometry": {"type": "Point", "coordinates": [108.24504099675211, 45.797718873869]}}, {"type": "Feature", "properties": {"norad_id": 33966, "name": "IRIDIUM 33 DEB", "group": "iridium-33-debris", "lat": 75.40495148410473, "lon": 62.4096587441361, "alt_km": 723.2003676345903, "timestamp": "2025-12-07T05:38:10.288661+00:00", "meta": {"OBJECT_NAME": "IRIDIUM 33 DEB", "OBJECT_ID": "1997-051CB", "EPOCH": "2025-12-06T14:55:28.956288", "MEAN_MOTION": 14.49555766, "ECCENTRICITY": 0.0006717, "INCLINATION": 86.3929, "RA_OF_ASC_NODE": 48.6529, "ARG_OF_PERICENTER": 209.7556, "MEAN_ANOMALY": 269.4553, "EPHEMERIS_TYPE": 0, "CLASSIFICATION_TYPE": "U", "NORAD_CAT_ID": 33966, "ELEMENT_SET_NO": 999, "REV_AT_EPOCH": 88353, "BSTAR": 0.0010447723, "MEAN_MOTION_DOT": 4.027e-05, "MEAN_MOTION_DDOT": 0}, "tle": {"line1": "1 33966U 97051CB  25340.62186292  .00004027  00000+0  10448-2 0  9990", "line2": "2 33966  86.3929  48.6529 0006717 209.7556 269.4553 14.49555766883538"}}, "geometry": {"type": "Point", "coordinates": [62.4096587441361, 75.40495148410473]}}, {"type": "Feature", "properties": {"norad_id": 34071, "name": "IRIDIUM 33 DEB", "group": "iridium-33-debris", "lat": 34.88725990199229, "lon": -162.33263402498173, "alt_km": 718.9463460522702, "timestamp": "2025-12-07T05:38:10.288671+00:00", "meta": {"OBJECT_NAME": "IRIDIUM 33 DEB", "OBJECT_ID": "1997-051CE", "EPOCH": "2025-12-06T12:24:05.065920", "MEAN_MOTION": 14.49423554, "ECCENTRICITY": 0.00096974, "INCLINATION": 86.3458, "RA_OF_ASC_NODE": 20.5333, "ARG_OF_PERICENTER": 124.3712, "MEAN_ANOMALY": 235.8411, "EPHEMERIS_TYPE": 0, "CLASSIFICATION_TYPE": "U", "NORAD_CAT_ID": 34071, "ELEMENT_SET_NO": 999, "REV_AT_EPOCH": 88244, "BSTAR": 0.0010979884, "MEAN_MOTION_DOT": 4.221e-05, "MEAN_MOTION_DDOT": 0}, "tle": {"line1": "1 34071U 97051CE  25340.51672530  .00004221  00000+0  10980-2 0  9998", "line2": "2 34071  86.3458  20.5333 0009697 124.3712 235.8411 14.49423554882449"}}, "geometry": {"type": "Point", "coordinates": [-162.33263402498173, 34.88725990199229]}}]}